CCSDS_OMM_VERS = 2.0
CREATION_DATE  = 
ORIGINATOR     = 

OBJECT_NAME    = SL-16 R/B
OBJECT_ID      = 1993-016B
CENTER_NAME    = EARTH
REF_FRAME      = TEME
TIME_SYSTEM    = UTC
MEAN_ELEMENT_THEORY = SGP/SGP4

EPOCH          = 2026-02-26T13:00:51.088608
MEAN_MOTION    = 14.15301601
ECCENTRICITY   = .001104
INCLINATION    = 71.0048
RA_OF_ASC_NODE = 238.5951
ARG_OF_PERICENTER = 329.7185
MEAN_ANOMALY   = 30.3299

EPHEMERIS_TYPE = 0
CLASSIFICATION_TYPE = U
NORAD_CAT_ID   = 22566
ELEMENT_SET_NO = 999
REV_AT_EPOCH   = 70059
BSTAR          = .15312E-3
MEAN_MOTION_DOT = .251E-5
MEAN_MOTION_DDOT = 0

CCSDS_OMM_VERS = 2.0
CREATION_DATE  = 
ORIGINATOR     = 

OBJECT_NAME    = COSMOS 2242
OBJECT_ID      = 1993-024A
CENTER_NAME    = EARTH
REF_FRAME      = TEME
TIME_SYSTEM    = UTC
MEAN_ELEMENT_THEORY = SGP/SGP4

EPOCH          = 2026-02-27T01:43:00.408000
MEAN_MOTION    = 14.96498984
ECCENTRICITY   = .0016011
INCLINATION    = 82.5163
RA_OF_ASC_NODE = 276.8749
ARG_OF_PERICENTER = 346.5657
MEAN_ANOMALY   = 13.5136

EPHEMERIS_TYPE = 0
CLASSIFICATION_TYPE = U
NORAD_CAT_ID   = 22626
ELEMENT_SET_NO = 999
REV_AT_EPOCH   = 77880
BSTAR          = .15841E-3
MEAN_MOTION_DOT = .1829E-4
MEAN_MOTION_DDOT = 0

CCSDS_OMM_VERS = 2.0
CREATION_DATE  = 
ORIGINATOR     = 

OBJECT_NAME    = ARIANE 40 R/B
OBJECT_ID      = 1993-061H
CENTER_NAME    = EARTH
REF_FRAME      = TEME
TIME_SYSTEM    = UTC
MEAN_ELEMENT_THEORY = SGP/SGP4

EPOCH          = 2026-02-27T03:41:58.472736
MEAN_MOTION    = 14.32854512
ECCENTRICITY   = .000978
INCLINATION    = 98.4940
RA_OF_ASC_NODE = 127.2487
ARG_OF_PERICENTER = 319.8542
MEAN_ANOMALY   = 40.1919

EPHEMERIS_TYPE = 0
CLASSIFICATION_TYPE = U
NORAD_CAT_ID   = 22830
ELEMENT_SET_NO = 999
REV_AT_EPOCH   = 69259
BSTAR          = .8948E-4
MEAN_MOTION_DOT = .201E-5
MEAN_MOTION_DDOT = 0

CCSDS_OMM_VERS = 2.0
CREATION_DATE  = 
ORIGINATOR     = 

OBJECT_NAME    = COSMOS 2278
OBJECT_ID      = 1994-023A
CENTER_NAME    = EARTH
REF_FRAME      = TEME
TIME_SYSTEM    = UTC
MEAN_ELEMENT_THEORY = SGP/SGP4

EPOCH          = 2026-02-26T20:20:41.633376
MEAN_MOTION    = 14.14371603
ECCENTRICITY   = .0007449
INCLINATION    = 71.0532
RA_OF_ASC_NODE = 197.7785
ARG_OF_PERICENTER = 35.2018
MEAN_ANOMALY   = 324.9595

EPHEMERIS_TYPE = 0
CLASSIFICATION_TYPE = U
NORAD_CAT_ID   = 23087
ELEMENT_SET_NO = 999
REV_AT_EPOCH   = 64327
BSTAR          = .235E-3
MEAN_MOTION_DOT = .403E-5
MEAN_MOTION_DDOT = 0

CCSDS_OMM_VERS = 2.0
CREATION_DATE  = 
ORIGINATOR     = 

OBJECT_NAME    = SL-16 R/B
OBJECT_ID      = 1994-023B
CENTER_NAME    = EARTH
REF_FRAME      = TEME
TIME_SYSTEM    = UTC
MEAN_ELEMENT_THEORY = SGP/SGP4

EPOCH          = 2026-02-27T02:40:02.329248
MEAN_MOTION    = 14.15013166
ECCENTRICITY   = .0005381
INCLINATION    = 70.9988
RA_OF_ASC_NODE = 93.1050
ARG_OF_PERICENTER = 295.8297
MEAN_ANOMALY   = 64.2270

EPHEMERIS_TYPE = 0
CLASSIFICATION_TYPE = U
NORAD_CAT_ID   = 23088
ELEMENT_SET_NO = 999
REV_AT_EPOCH   = 64459
BSTAR          = .39661E-4
MEAN_MOTION_DOT = .29E-6
MEAN_MOTION_DDOT = 0

CCSDS_OMM_VERS = 2.0
CREATION_DATE  = 
ORIGINATOR     = 

OBJECT_NAME    = SL-16 R/B
OBJECT_ID      = 1994-074B
CENTER_NAME    = EARTH
REF_FRAME      = TEME
TIME_SYSTEM    = UTC
MEAN_ELEMENT_THEORY = SGP/SGP4

EPOCH          = 2026-02-27T02:34:56.604576
MEAN_MOTION    = 14.79393414
ECCENTRICITY   = .0005175
INCLINATION    = 97.7124
RA_OF_ASC_NODE = 89.3533
ARG_OF_PERICENTER = 251.8588
MEAN_ANOMALY   = 173.1265

EPHEMERIS_TYPE = 0
CLASSIFICATION_TYPE = U
NORAD_CAT_ID   = 23343
ELEMENT_SET_NO = 999
REV_AT_EPOCH   = 68568
BSTAR          = .70809E-4
MEAN_MOTION_DOT = .479E-5
MEAN_MOTION_DDOT = 0

CCSDS_OMM_VERS = 2.0
CREATION_DATE  = 
ORIGINATOR     = 

OBJECT_NAME    = SL-16 R/B
OBJECT_ID      = 1994-077B
CENTER_NAME    = EARTH
REF_FRAME      = TEME
TIME_SYSTEM    = UTC
MEAN_ELEMENT_THEORY = SGP/SGP4

EPOCH          = 2026-02-27T04:01:14.779488
MEAN_MOTION    = 14.15563630
ECCENTRICITY   = .0003631
INCLINATION    = 70.9848
RA_OF_ASC_NODE = 14.6235
ARG_OF_PERICENTER = 225.1050
MEAN_ANOMALY   = 134.9779

EPHEMERIS_TYPE = 0
CLASSIFICATION_TYPE = U
NORAD_CAT_ID   = 23405
ELEMENT_SET_NO = 999
REV_AT_EPOCH   = 61474
BSTAR          = -.68678E-4
MEAN_MOTION_DOT = -.182E-5
MEAN_MOTION_DDOT = 0

CCSDS_OMM_VERS = 2.0
CREATION_DATE  = 
ORIGINATOR     = 

OBJECT_NAME    = ARIANE 40+ R/B
OBJECT_ID      = 1995-021B
CENTER_NAME    = EARTH
REF_FRAME      = TEME
TIME_SYSTEM    = UTC
MEAN_ELEMENT_THEORY = SGP/SGP4

EPOCH          = 2026-02-27T04:23:01.785120
MEAN_MOTION    = 14.39763617
ECCENTRICITY   = .0007172
INCLINATION    = 98.4519
RA_OF_ASC_NODE = 129.8065
ARG_OF_PERICENTER = 164.6727
MEAN_ANOMALY   = 249.7490

EPHEMERIS_TYPE = 0
CLASSIFICATION_TYPE = U
NORAD_CAT_ID   = 23561
ELEMENT_SET_NO = 999
REV_AT_EPOCH   = 61773
BSTAR          = .10465E-3
MEAN_MOTION_DOT = .285E-5
MEAN_MOTION_DDOT = 0

CCSDS_OMM_VERS = 2.0
CREATION_DATE  = 
ORIGINATOR     = 

OBJECT_NAME    = SL-16 R/B
OBJECT_ID      = 1995-058B
CENTER_NAME    = EARTH
REF_FRAME      = TEME
TIME_SYSTEM    = UTC
MEAN_ELEMENT_THEORY = SGP/SGP4

EPOCH          = 2026-02-26T19:41:45.173472
MEAN_MOTION    = 14.15493403
ECCENTRICITY   = .00111231
INCLINATION    = 71.0207
RA_OF_ASC_NODE = 203.0723
ARG_OF_PERICENTER = 145.0389
MEAN_ANOMALY   = 215.1466

EPHEMERIS_TYPE = 0
CLASSIFICATION_TYPE = U
NORAD_CAT_ID   = 23705
ELEMENT_SET_NO = 999
REV_AT_EPOCH   = 56631
BSTAR          = -.86200995E-4
MEAN_MOTION_DOT = -.216E-5
MEAN_MOTION_DDOT = 0

CCSDS_OMM_VERS = 2.0
CREATION_DATE  = 
ORIGINATOR     = 

OBJECT_NAME    = SL-16 R/B
OBJECT_ID      = 1996-051B
CENTER_NAME    = EARTH
REF_FRAME      = TEME
TIME_SYSTEM    = UTC
MEAN_ELEMENT_THEORY = SGP/SGP4

EPOCH          = 2026-02-27T02:49:44.559840
MEAN_MOTION    = 14.12412545
ECCENTRICITY   = .0016017
INCLINATION    = 70.7590
RA_OF_ASC_NODE = 197.6137
ARG_OF_PERICENTER = 163.4351
MEAN_ANOMALY   = 196.7295

EPHEMERIS_TYPE = 0
CLASSIFICATION_TYPE = U
NORAD_CAT_ID   = 24298
ELEMENT_SET_NO = 999
REV_AT_EPOCH   = 52015
BSTAR          = .73065E-4
MEAN_MOTION_DOT = .86E-6
MEAN_MOTION_DDOT = 0

CCSDS_OMM_VERS = 2.0
CREATION_DATE  = 
ORIGINATOR     = 

OBJECT_NAME    = ORBVIEW 2 (SEASTAR)
OBJECT_ID      = 1997-037A
CENTER_NAME    = EARTH
REF_FRAME      = TEME
TIME_SYSTEM    = UTC
MEAN_ELEMENT_THEORY = SGP/SGP4

EPOCH          = 2026-02-27T04:07:11.023104
MEAN_MOTION    = 14.35485222
ECCENTRICITY   = .000322
INCLINATION    = 98.8549
RA_OF_ASC_NODE = 222.2059
ARG_OF_PERICENTER = 93.3286
MEAN_ANOMALY   = 266.8267

EPHEMERIS_TYPE = 0
CLASSIFICATION_TYPE = U
NORAD_CAT_ID   = 24883
ELEMENT_SET_NO = 999
REV_AT_EPOCH   = 50696
BSTAR          = .11744E-3
MEAN_MOTION_DOT = .291E-5
MEAN_MOTION_DDOT = 0

