SL-16 R/B               
1 22566U 93016B   26057.54225797  .00000251  00000+0  15312-3 0  9993
2 22566  71.0048 238.5951 0011040 329.7185  30.3299 14.15301601700596
COSMOS 2242             
1 22626U 93024A   26058.07153250  .00001829  00000+0  15841-3 0  9991
2 22626  82.5163 276.8749 0016011 346.5657  13.5136 14.96498984778804
ARIANE 40 R/B           
1 22830U 93061H   26058.15414899  .00000201  00000+0  89480-4 0  9991
2 22830  98.4940 127.2487 0009780 319.8542  40.1919 14.32854512692598
COSMOS 2278             
1 23087U 94023A   26057.84770409  .00000403  00000+0  23500-3 0  9996
2 23087  71.0532 197.7785 0007449  35.2018 324.9595 14.14371603643276
SL-16 R/B               
1 23088U 94023B   26058.11113807  .00000029  00000+0  39661-4 0  9991
2 23088  70.9988  93.1050 0005381 295.8297  64.2270 14.15013166644598
SL-16 R/B               
1 23343U 94074B   26058.10759959  .00000479  00000+0  70809-4 0  9992
2 23343  97.7124  89.3533 0005175 251.8588 173.1265 14.79393414685686
SL-16 R/B               
1 23405U 94077B   26058.16753217 -.00000182  00000+0 -68678-4 0  9995
2 23405  70.9848  14.6235 0003631 225.1050 134.9779 14.15563630614747
ARIANE 40+ R/B          
1 23561U 95021B   26058.18265955  .00000285  00000+0  10465-3 0  9999
2 23561  98.4519 129.8065 0007172 164.6727 249.7490 14.39763617617732
SL-16 R/B               
1 23705U 95058B   26057.82066173 -.00000216  00000+0 -86201-4 0  9998
2 23705  71.0207 203.0723 0011123 145.0389 215.1466 14.15493403566311
SL-16 R/B               
1 24298U 96051B   26058.11787685  .00000086  00000+0  73065-4 0  9998
2 24298  70.7590 197.6137 0016017 163.4351 196.7295 14.12412545520158
ORBVIEW 2 (SEASTAR)     
1 24883U 97037A   26058.17165536  .00000291  00000+0  11744-3 0  9997
2 24883  98.8549 222.2059 0003220  93.3286 266.8267 14.35485222506969
